ORBCOMM FM06            
1 25118U 97084G   26157.60390905  .00001473  00000+0  43588-3 0  9993
2 25118  45.0133 103.6590 0002007 298.9421 230.5330 14.47536333492856
ORBCOMM FM04            
1 25159U 98007C   26158.22201256  .00001080  00000+0  41520-3 0  9991
2 25159 107.9627 148.9100 0041040 341.9320  18.0360 14.35723329475160
ORBCOMM FM19            
1 25415U 98046C   26158.10863810  .00000930  00000+0  34111-3 0  9997
2 25415  44.9944 291.4676 0004253 241.3041 288.4023 14.39479917455327
ORBCOMM FM20            
1 25416U 98046D   26158.07864950  .00000707  00000+0  27803-3 0  9992
2 25416  44.9949 299.4212 0001612 215.8377 144.2363 14.38052845455334
ORBCOMM FM27            
1 25481U 98053G   26157.35817167  .00001079  00000+0  39118-3 0  9995
2 25481  45.0066  26.7866 0000256  41.5364 318.5504 14.39121247448673
ORBCOMM FM32            
1 25982U 99065C   26157.44591547  .00000624  00000+0  25555-3 0  9991
2 25982  45.0145 224.0828 0005217 341.0890  18.9763 14.37118027385546
ORBCOMM FM109           
1 40086U 14040A   26158.23606478  .00000548  00000+0  15218-3 0  9991
2 40086  47.0017 138.5343 0001599 218.0936 141.9837 14.58834189632891
ORBCOMM FM114           
1 41179U 15081A   26152.97982418  .00000602  00000+0  16356-3 0  9992
2 41179  47.0052  73.9009 0001546 135.7645 224.3365 14.58838571555535
ORBCOMM FM110           
1 41182U 15081D   26157.96795212  .00000741  00000+0  19302-3 0  9992
2 41182  47.0029  49.7610 0002940  18.6337 341.4656 14.58863616556137
ORBCOMM FM118           
1 41183U 15081E   26156.97489096  .00003194  00000+0  71149-3 0  9995
2 41183  47.0105  54.7867 0003166 344.4390  15.6398 14.58872006556094
ORBCOMM FM112           
1 41184U 15081F   26158.14391773  .00000684  00000+0  18077-3 0  9993
2 41184  47.0001 317.7383 0003078 173.0297 187.0632 14.58889255557482
ORBCOMM FM113           
1 41185U 15081G   26157.70931320  .00000567  00000+0  15623-3 0  9997
2 41185  47.0018 320.1644 0001652 181.5263 178.5618 14.58847509557409
ORBCOMM FM108           
1 41187U 15081J   26156.50751746  .00000700  00000+0  18440-3 0  9997
2 41187  47.0046 237.4186 0002310 171.2053 188.8874 14.58857926558377
ORBCOMM FM117           
1 41188U 15081K   26157.50030620  .00000653  00000+0  17449-3 0  9995
2 41188  47.0007 231.3617 0002902 177.9950 182.0948 14.58856172558564
ORBCOMM FM116           
1 41189U 15081L   26158.16572055  .00000835  00000+0  21284-3 0  9996
2 41189  47.0034 318.0051 0001126   0.2552 359.8334 14.58868481557471
